{
  "type": "FeatureCollection",
  "features": [
    {
      "type": "Feature",
      "properties": {
        "norad_id": 36585,
        "name": "GPS BIIF-1  (PRN 25)",
        "group": "gnss",
        "lat": -38.35300659645145,
        "lon": -178.7835904866613,
        "alt_km": 20325.610430569315,
        "timestamp": "2025-12-17T21:39:45.932644+00:00",
        "meta_object_name": "GPS BIIF-1  (PRN 25)",
        "meta_object_id": "2010-022A",
        "meta_epoch": "2025-12-16T01:01:22.883808",
        "meta_mean_motion": 2.00553454,
        "meta_eccentricity": 0.01262565,
        "meta_inclination": 54.2996,
        "meta_ra_of_asc_node": 215.9407,
        "meta_arg_of_pericenter": 65.1133,
        "meta_mean_anomaly": 343.5127,
        "meta_ephemeris_type": 0,
        "meta_classification_type": "U",
        "meta_norad_cat_id": 36585,
        "meta_element_set_no": 999,
        "meta_rev_at_epoch": 11392,
        "meta_bstar": 0,
        "meta_mean_motion_dot": 7.2e-07,
        "meta_mean_motion_ddot": 0,
        "tle_line1": "1 36585U 10022A   25350.04262597  .00000072  00000+0  00000+0 0  9999",
        "tle_line2": "2 36585  54.2996 215.9407 0126256  65.1133 343.5127  2.00553454113922"
      },
      "geometry": {
        "type": "Point",
        "coordinates": [
          -178.7835904866613,
          -38.35300659645145
        ]
      }
    },
    {
      "type": "Feature",
      "properties": {
        "norad_id": 36828,
        "name": "BEIDOU-2 IGSO-1 (C06)",
        "group": "gnss",
        "lat": -3.713905800157865,
        "lon": 161.90835954915684,
        "alt_km": 35950.12437134016,
        "timestamp": "2025-12-17T21:39:45.932656+00:00",
        "meta_object_name": "BEIDOU-2 IGSO-1 (C06)",
        "meta_object_id": "2010-036A",
        "meta_epoch": "2025-12-14T21:38:21.623424",
        "meta_mean_motion": 1.00275796,
        "meta_eccentricity": 0.00512569,
        "meta_inclination": 54.2866,
        "meta_ra_of_asc_node": 164.6279,
        "meta_arg_of_pericenter": 215.8888,
        "meta_mean_anomaly": 135.7931,
        "meta_ephemeris_type": 0,
        "meta_classification_type": "U",
        "meta_norad_cat_id": 36828,
        "meta_element_set_no": 999,
        "meta_rev_at_epoch": 5624,
        "meta_bstar": 0,
        "meta_mean_motion_dot": -2.4e-07,
        "meta_mean_motion_ddot": 0,
        "tle_line1": "1 36828U 10036A   25348.90163916 -.00000024  00000+0  00000+0 0  9999",
        "tle_line2": "2 36828  54.2866 164.6279 0051256 215.8888 135.7931  1.00275796 56247"
      },
      "geometry": {
        "type": "Point",
        "coordinates": [
          161.90835954915684,
          -3.713905800157865
        ]
      }
    },
    {
      "type": "Feature",
      "properties": {
        "norad_id": 37210,
        "name": "BEIDOU-2 G4 (C04)",
        "group": "gnss",
        "lat": 1.960496225327769,
        "lon": -148.26225111585833,
        "alt_km": 35757.45380200074,
        "timestamp": "2025-12-17T21:39:45.932668+00:00",
        "meta_object_name": "BEIDOU-2 G4 (C04)",
        "meta_object_id": "2010-057A",
        "meta_epoch": "2025-12-17T14:05:10.675968",
        "meta_mean_motion": 1.0027203,
        "meta_eccentricity": 0.00104891,
        "meta_inclination": 3.1964,
        "meta_ra_of_asc_node": 69.9212,
        "meta_arg_of_pericenter": 192.2572,
        "meta_mean_anomaly": 195.6572,
        "meta_ephemeris_type": 0,
        "meta_classification_type": "U",
        "meta_norad_cat_id": 37210,
        "meta_element_set_no": 999,
        "meta_rev_at_epoch": 5547,
        "meta_bstar": 0,
        "meta_mean_motion_dot": -8.9e-07,
        "meta_mean_motion_ddot": 0,
        "tle_line1": "1 37210U 10057A   25351.58692912 -.00000089  00000+0  00000+0 0  9990",
        "tle_line2": "2 37210   3.1964  69.9212 0010489 192.2572 195.6572  1.00272030 55478"
      },
      "geometry": {
        "type": "Point",
        "coordinates": [
          -148.26225111585833,
          1.960496225327769
        ]
      }
    },
    {
      "type": "Feature",
      "properties": {
        "norad_id": 37256,
        "name": "BEIDOU-2 IGSO-2 (C07)",
        "group": "gnss",
        "lat": -42.57822410748942,
        "lon": 150.11848932379067,
        "alt_km": 35610.678747712715,
        "timestamp": "2025-12-17T21:39:45.932680+00:00",
        "meta_object_name": "BEIDOU-2 IGSO-2 (C07)",
        "meta_object_id": "2010-068A",
        "meta_epoch": "2025-12-17T16:36:54.045216",
        "meta_mean_motion": 1.00285241,
        "meta_eccentricity": 0.00482965,
        "meta_inclination": 47.8765,
        "meta_ra_of_asc_node": 274.0877,
        "meta_arg_of_pericenter": 216.3022,
        "meta_mean_anomaly": 313.2194,
        "meta_ephemeris_type": 0,
        "meta_classification_type": "U",
        "meta_norad_cat_id": 37256,
        "meta_element_set_no": 999,
        "meta_rev_at_epoch": 5497,
        "meta_bstar": 0,
        "meta_mean_motion_dot": -2.07e-06,
        "meta_mean_motion_ddot": 0,
        "tle_line1": "1 37256U 10068A   25351.69229219 -.00000207  00000+0  00000+0 0  9992",
        "tle_line2": "2 37256  47.8765 274.0877 0048296 216.3022 313.2194  1.00285241 54973"
      },
      "geometry": {
        "type": "Point",
        "coordinates": [
          150.11848932379067,
          -42.57822410748942
        ]
      }
    },
    {
      "type": "Feature",
      "properties": {
        "norad_id": 37384,
        "name": "BEIDOU-2 IGSO-3 (C08)",
        "group": "gnss",
        "lat": 52.10180278559165,
        "lon": 179.19789528510012,
        "alt_km": 35733.16406620802,
        "timestamp": "2025-12-17T21:39:45.932691+00:00",
        "meta_object_name": "BEIDOU-2 IGSO-3 (C08)",
        "meta_object_id": "2011-013A",
        "meta_epoch": "2025-12-17T16:16:10.103808",
        "meta_mean_motion": 1.00269735,
        "meta_eccentricity": 0.00353562,
        "meta_inclination": 62.15,
        "meta_ra_of_asc_node": 41.8689,
        "meta_arg_of_pericenter": 187.938,
        "meta_mean_anomaly": 208.2285,
        "meta_ephemeris_type": 0,
        "meta_classification_type": "U",
        "meta_norad_cat_id": 37384,
        "meta_element_set_no": 999,
        "meta_rev_at_epoch": 5384,
        "meta_bstar": 0,
        "meta_mean_motion_dot": -1.79e-06,
        "meta_mean_motion_ddot": 0,
        "tle_line1": "1 37384U 11013A   25351.67789472 -.00000179  00000+0  00000+0 0  9993",
        "tle_line2": "2 37384  62.1500  41.8689 0035356 187.9380 208.2285  1.00269735 53845"
      },
      "geometry": {
        "type": "Point",
        "coordinates": [
          179.19789528510012,
          52.10180278559165
        ]
      }
    },
    {
      "type": "Feature",
      "properties": {
        "norad_id": 37605,
        "name": "GSAT-8 (GAGAN/PRN 127)",
        "group": "gnss",
        "lat": 0.6626088970979986,
        "lon": 106.75321746194332,
        "alt_km": 35820.5931223955,
        "timestamp": "2025-12-17T21:39:45.932702+00:00",
        "meta_object_name": "GSAT-8 (GAGAN/PRN 127)",
        "meta_object_id": "2011-022A",
        "meta_epoch": "2025-12-17T13:35:21.033024",
        "meta_mean_motion": 1.00272473,
        "meta_eccentricity": 0.00086316,
        "meta_inclination": 1.6617,
        "meta_ra_of_asc_node": 84.1425,
        "meta_arg_of_pericenter": 184.8711,
        "meta_mean_anomaly": 76.3523,
        "meta_ephemeris_type": 0,
        "meta_classification_type": "U",
        "meta_norad_cat_id": 37605,
        "meta_element_set_no": 999,
        "meta_rev_at_epoch": 5139,
        "meta_bstar": 0,
        "meta_mean_motion_dot": 1.08e-06,
        "meta_mean_motion_ddot": 0,
        "tle_line1": "1 37605U 11022A   25351.56621566  .00000108  00000+0  00000+0 0  9997",
        "tle_line2": "2 37605   1.6617  84.1425 0008631 184.8711  76.3523  1.00272473 51396"
      },
      "geometry": {
        "type": "Point",
        "coordinates": [
          106.75321746194332,
          0.6626088970979986
        ]
      }
    },
    {
      "type": "Feature",
      "properties": {
        "norad_id": 37763,
        "name": "BEIDOU-2 IGSO-4 (C09)",
        "group": "gnss",
        "lat": -15.719396451833706,
        "lon": 155.71833726638715,
        "alt_km": 35996.13187193499,
        "timestamp": "2025-12-17T21:39:45.932712+00:00",
        "meta_object_name": "BEIDOU-2 IGSO-4 (C09)",
        "meta_object_id": "2011-038A",
        "meta_epoch": "2025-12-15T07:50:06.120672",
        "meta_mean_motion": 1.00281785,
        "meta_eccentricity": 0.01493054,
        "meta_inclination": 54.5835,
        "meta_ra_of_asc_node": 167.3229,
        "meta_arg_of_pericenter": 230.222,
        "meta_mean_anomaly": 258.6911,
        "meta_ephemeris_type": 0,
        "meta_classification_type": "U",
        "meta_norad_cat_id": 37763,
        "meta_element_set_no": 999,
        "meta_rev_at_epoch": 5280,
        "meta_bstar": 0,
        "meta_mean_motion_dot": 6.8e-07,
        "meta_mean_motion_ddot": 0,
        "tle_line1": "1 37763U 11038A   25349.32645973  .00000068  00000+0  00000+0 0  9993",
        "tle_line2": "2 37763  54.5835 167.3229 0149305 230.2220 258.6911  1.00281785 52800"
      },
      "geometry": {
        "type": "Point",
        "coordinates": [
          155.71833726638715,
          -15.719396451833706
        ]
      }
    }
  ]
}